{"type": "FeatureCollection", "features": [ {"type": "Feature", "properties": {"norad_id": 40701, "name": "GAOFEN-8", "group": "resource", "lat": 41.721623019170075, "lon": 6.934775965543636, "alt_km": 440.37014153584096, "timestamp": "2025-12-27T03:58:43.835303+00:00", "meta": {"OBJECT_NAME": "GAOFEN-8", "OBJECT_ID": "2015-030A", "EPOCH": "2025-12-26T21:08:30.983424", "MEAN_MOTION": 15.39079224, "ECCENTRICITY": 0.001153, "INCLINATION": 97.6902, "RA_OF_ASC_NODE": 179.7158, "ARG_OF_PERICENTER": 89.2631, "MEAN_ANOMALY": 270.9935, "EPHEMERIS_TYPE": 0, "CLASSIFICATION_TYPE": "U", "NORAD_CAT_ID": 40701, "ELEMENT_SET_NO": 999, "REV_AT_EPOCH": 58488, "BSTAR": 0.00067377, "MEAN_MOTION_DOT": 0.00026111, "MEAN_MOTION_DDOT": 0}, "tle": {"line1": "1 40701U 15030A   25360.88091416  .00026111  00000+0  67377-3 0  9997", "line2": "2 40701  97.6902 179.7158 0011530  89.2631 270.9935 15.39079224584884"}}, "geometry": {"type": "Point", "coordinates": [6.934775965543636, 41.721623019170075]}}, {"type": "Feature", "properties": {"norad_id": 40718, "name": "CARBONITE 1 (CBNT-1)", "group": "resource", "lat": 43.48582029348476, "lon": 174.26015182692294, "alt_km": 617.0014590060428, "timestamp": "2025-12-27T03:58:43.835313+00:00", "meta": {"OBJECT_NAME": "CARBONITE 1 (CBNT-1)", "OBJECT_ID": "2015-032D", "EPOCH": "2025-12-26T19:40:59.721024", "MEAN_MOTION": 14.82813075, "ECCENTRICITY": 0.0015416, "INCLINATION": 97.6408, "RA_OF_ASC_NODE": 181.2451, "ARG_OF_PERICENTER": 136.1017, "MEAN_ANOMALY": 224.1425, "EPHEMERIS_TYPE": 0, "CLASSIFICATION_TYPE": "U", "NORAD_CAT_ID": 40718, "ELEMENT_SET_NO": 999, "REV_AT_EPOCH": 56379, "BSTAR": 0.00055281, "MEAN_MOTION_DOT": 4.432e-05, "MEAN_MOTION_DDOT": 0}, "tle": {"line1": "1 40718U 15032D   25360.82013566  .00004432  00000+0  55281-3 0  9994", "line2": "2 40718  97.6408 181.2451 0015416 136.1017 224.1425 14.82813075563793"}}, "geometry": {"type": "Point", "coordinates": [174.26015182692294, 43.48582029348476]}}, {"type": "Feature", "properties": {"norad_id": 40878, "name": "YAOGAN-27", "group": "resource", "lat": 76.94870226674684, "lon": -139.5977218290276, "alt_km": 1197.5983809055106, "timestamp": "2025-12-27T03:58:43.835322+00:00", "meta": {"OBJECT_NAME": "YAOGAN-27", "OBJECT_ID": "2015-040A", "EPOCH": "2025-12-26T22:00:25.673184", "MEAN_MOTION": 13.16059956, "ECCENTRICITY": 0.000759, "INCLINATION": 100.1025, "RA_OF_ASC_NODE": 349.896, "ARG_OF_PERICENTER": 251.4695, "MEAN_ANOMALY": 108.5595, "EPHEMERIS_TYPE": 0, "CLASSIFICATION_TYPE": "U", "NORAD_CAT_ID": 40878, "ELEMENT_SET_NO": 999, "REV_AT_EPOCH": 49500, "BSTAR": -0.001152, "MEAN_MOTION_DOT": -4.8e-06, "MEAN_MOTION_DDOT": 0}, "tle": {"line1": "1 40878U 15040A   25360.91696381 -.00000480  00000+0 -11520-2 0  9990", "line2": "2 40878 100.1025 349.8960 0007590 251.4695 108.5595 13.16059956495006"}}, "geometry": {"type": "Point", "coordinates": [-139.5977218290276, 76.94870226674684]}}, {"type": "Feature", "properties": {"norad_id": 40894, "name": "GAOFEN-9 01", "group": "resource", "lat": -52.06430007092979, "lon": 49.429723736198596, "alt_km": 613.9564533491703, "timestamp": "2025-12-27T03:58:43.835331+00:00", "meta": {"OBJECT_NAME": "GAOFEN-9 01", "OBJECT_ID": "2015-047A", "EPOCH": "2025-12-26T20:06:55.726272", "MEAN_MOTION": 14.82456562, "ECCENTRICITY": 0.0027235, "INCLINATION": 97.6525, "RA_OF_ASC_NODE": 39.1837, "ARG_OF_PERICENTER": 348.5411, "MEAN_ANOMALY": 11.518, "EPHEMERIS_TYPE": 0, "CLASSIFICATION_TYPE": "U", "NORAD_CAT_ID": 40894, "ELEMENT_SET_NO": 999, "REV_AT_EPOCH": 55465, "BSTAR": 0.0001599, "MEAN_MOTION_DOT": 1.239e-05, "MEAN_MOTION_DDOT": 0}, "tle": {"line1": "1 40894U 15047A   25360.83814498  .00001239  00000+0  15990-3 0  9994", "line2": "2 40894  97.6525  39.1837 0027235 348.5411  11.5180 14.82456562554651"}}, "geometry": {"type": "Point", "coordinates": [49.429723736198596, -52.06430007092979]}}, {"type": "Feature", "properties": {"norad_id": 41026, "name": "YAOGAN-28", "group": "resource", "lat": 61.0797166633139, "lon": -28.06536946222861, "alt_km": 479.2724503729687, "timestamp": "2025-12-27T03:58:43.835341+00:00", "meta": {"OBJECT_NAME": "YAOGAN-28", "OBJECT_ID": "2015-064A", "EPOCH": "2025-12-26T21:09:47.373120", "MEAN_MOTION": 15.24578054, "ECCENTRICITY": 0.0012637, "INCLINATION": 97.2815, "RA_OF_ASC_NODE": 138.2772, "ARG_OF_PERICENTER": 81.2141, "MEAN_ANOMALY": 279.0528, "EPHEMERIS_TYPE": 0, "CLASSIFICATION_TYPE": "U", "NORAD_CAT_ID": 41026, "ELEMENT_SET_NO": 999, "REV_AT_EPOCH": 56440, "BSTAR": 0.00035373, "MEAN_MOTION_DOT": 8.668e-05, "MEAN_MOTION_DDOT": 0}, "tle": {"line1": "1 41026U 15064A   25360.88179830  .00008668  00000+0  35373-3 0  9990", "line2": "2 41026  97.2815 138.2772 0012637  81.2141 279.0528 15.24578054564406"}}, "geometry": {"type": "Point", "coordinates": [-28.06536946222861, 61.0797166633139]}}, {"type": "Feature", "properties": {"norad_id": 41038, "name": "YAOGAN-29", "group": "resource", "lat": -38.843146899700876, "lon": -162.13717671424487, "alt_km": 626.3536477473262, "timestamp": "2025-12-27T03:58:43.835350+00:00", "meta": {"OBJECT_NAME": "YAOGAN-29", "OBJECT_ID": "2015-069A", "EPOCH": "2025-12-26T20:30:56.295072", "MEAN_MOTION": 14.82897601, "ECCENTRICITY": 9.9e-05, "INCLINATION": 98.0208, "RA_OF_ASC_NODE": 24.0707, "ARG_OF_PERICENTER": 157.5431, "MEAN_ANOMALY": 202.5825, "EPHEMERIS_TYPE": 0, "CLASSIFICATION_TYPE": "U", "NORAD_CAT_ID": 41038, "ELEMENT_SET_NO": 999, "REV_AT_EPOCH": 54508, "BSTAR": 4.33e-05, "MEAN_MOTION_DOT": 2.97e-06, "MEAN_MOTION_DDOT": 0}, "tle": {"line1": "1 41038U 15069A   25360.85481823  .00000297  00000+0  43300-4 0  9993", "line2": "2 41038  98.0208  24.0707 0000990 157.5431 202.5825 14.82897601545081"}}, "geometry": {"type": "Point", "coordinates": [-162.13717671424487, -38.843146899700876]}}, {"type": "Feature", "properties": {"norad_id": 41167, "name": "KENT RIDGE 1", "group": "resource", "lat": -6.668130850301549, "lon": -49.979875389102794, "alt_km": 502.2181253870476, "timestamp": "2025-12-27T03:58:43.835359+00:00", "meta": {"OBJECT_NAME": "KENT RIDGE 1", "OBJECT_ID": "2015-077B", "EPOCH": "2025-12-26T12:55:02.392032", "MEAN_MOTION": 15.21738831, "ECCENTRICITY": 0.0008524, "INCLINATION": 14.9791, "RA_OF_ASC_NODE": 108.7428, "ARG_OF_PERICENTER": 325.4812, "MEAN_ANOMALY": 34.4956, "EPHEMERIS_TYPE": 0, "CLASSIFICATION_TYPE": "U", "NORAD_CAT_ID": 41167, "ELEMENT_SET_NO": 999, "REV_AT_EPOCH": 55474, "BSTAR": 0.00016759, "MEAN_MOTION_DOT": 4.67e-05, "MEAN_MOTION_DDOT": 0}, "tle": {"line1": "1 41167U 15077B   25360.53822213  .00004670  00000+0  16759-3 0  9998", "line2": "2 41167  14.9791 108.7428 0008524 325.4812  34.4956 15.21738831554741"}}, "geometry": {"type": "Point", "coordinates": [-49.979875389102794, -6.668130850301549]}}, {"type": "Feature", "properties": {"norad_id": 41194, "name": "GAOFEN-4", "group": "resource", "lat": -0.015000377881962351, "lon": -98.6976500222884, "alt_km": 35785.86172338268, "timestamp": "2025-12-27T03:58:43.835371+00:00", "meta": {"OBJECT_NAME": "GAOFEN-4", "OBJECT_ID": "2015-083A", "EPOCH": "2025-12-26T18:07:38.790048", "MEAN_MOTION": 1.00269051, "ECCENTRICITY": 0.000282, "INCLINATION": 0.204, "RA_OF_ASC_NODE": 82.008, "ARG_OF_PERICENTER": 94.4058, "MEAN_ANOMALY": 296.6921, "EPHEMERIS_TYPE": 0, "CLASSIFICATION_TYPE": "U", "NORAD_CAT_ID": 41194, "ELEMENT_SET_NO": 999, "REV_AT_EPOCH": 3680, "BSTAR": 0, "MEAN_MOTION_DOT": -3.12e-06, "MEAN_MOTION_DDOT": 0}, "tle": {"line1": "1 41194U 15083A   25360.75531007 -.00000312  00000+0  00000+0 0  9995", "line2": "2 41194   0.2040  82.0080 0002820  94.4058 296.6921  1.00269051 36803"}}, "geometry": {"type": "Point", "coordinates": [-98.6976500222884, -0.015000377881962351]}}, {"type": "Feature", "properties": {"norad_id": 41240, "name": "JASON-3", "group": "resource", "lat": -32.660218439461175, "lon": -35.94551076507449, "alt_km": 1312.8721164254766, "timestamp": "2025-12-27T03:58:43.835381+00:00", "meta": {"OBJECT_NAME": "JASON-3", "OBJECT_ID": "2016-002A", "EPOCH": "2025-12-26T19:24:11.654208", "MEAN_MOTION": 12.87627185, "ECCENTRICITY": 0.0007331, "INCLINATION": 66.0408, "RA_OF_ASC_NODE": 128.2462, "ARG_OF_PERICENTER": 271.6694, "MEAN_ANOMALY": 88.3485, "EPHEMERIS_TYPE": 0, "CLASSIFICATION_TYPE": "U", "NORAD_CAT_ID": 41240, "ELEMENT_SET_NO": 999, "REV_AT_EPOCH": 46505, "BSTAR": 0.00018206, "MEAN_MOTION_DOT": -1.6e-07, "MEAN_MOTION_DDOT": 0}, "tle": {"line1": "1 41240U 16002A   25360.80846822 -.00000016  00000+0  18206-3 0  9991", "line2": "2 41240  66.0408 128.2462 0007331 271.6694  88.3485 12.87627185465054"}}, "geometry": {"type": "Point", "coordinates": [-35.94551076507449, -32.660218439461175]}}, {"type": "Feature", "properties": {"norad_id": 41335, "name": "SENTINEL-3A", "group": "resource", "lat": -65.29863251155022, "lon": -133.3010636386384, "alt_km": 810.4124905513199, "timestamp": "2025-12-27T03:58:43.835390+00:00", "meta": {"OBJECT_NAME": "SENTINEL-3A", "OBJECT_ID": "2016-011A", "EPOCH": "2025-12-26T20:05:36.646080", "MEAN_MOTION": 14.26736078, "ECCENTRICITY": 8.89e-05, "INCLINATION": 98.6296, "RA_OF_ASC_NODE": 65.6529, "ARG_OF_PERICENTER": 97.7648, "MEAN_ANOMALY": 262.3633, "EPHEMERIS_TYPE": 0, "CLASSIFICATION_TYPE": "U", "NORAD_CAT_ID": 41335, "ELEMENT_SET_NO": 999, "REV_AT_EPOCH": 51348, "BSTAR": 7.6997e-05, "MEAN_MOTION_DOT": 1.43e-06, "MEAN_MOTION_DDOT": 0}, "tle": {"line1": "1 41335U 16011A   25360.83722970  .00000143  00000+0  76997-4 0  9998", "line2": "2 41335  98.6296  65.6529 0000889  97.7648 262.3633 14.26736078513487"}}, "geometry": {"type": "Point", "coordinates": [-133.3010636386384, -65.29863251155022]}}]}